[{"OBJECT_NAME":"ONEWEB-0566","OBJECT_ID":"2023-043R","EPOCH":"2025-11-16T15:26:11.804352","MEAN_MOTION":13.21827557,"ECCENTRICITY":0.0002259,"INCLINATION":87.9186,"RA_OF_ASC_NODE":286.3726,"ARG_OF_PERICENTER":83.4942,"MEAN_ANOMALY":276.6449,"EPHEMERIS_TYPE":0,"CLASSIFICATION_TYPE":"U","NORAD_CAT_ID":56061,"ELEMENT_SET_NO":999,"REV_AT_EPOCH":13015,"BSTAR":-1.0249e-5,"MEAN_MOTION_DOT":9.0e-8,"MEAN_MOTION_DDOT":0},{"OBJECT_NAME":"ONEWEB-0568","OBJECT_ID":"2023-043S","EPOCH":"2025-11-16T08:54:51.793056","MEAN_MOTION":13.16592707,"ECCENTRICITY":0.00016998,"INCLINATION":87.9016,"RA_OF_ASC_NODE":271.15,"ARG_OF_PERICENTER":73.5406,"MEAN_ANOMALY":286.5912,"EPHEMERIS_TYPE":0,"CLASSIFICATION_TYPE":"U","NORAD_CAT_ID":56062,"ELEMENT_SET_NO":999,"REV_AT_EPOCH":13097,"BSTAR":4.3052923e-5,"MEAN_MOTION_DOT":2.9e-7,"MEAN_MOTION_DDOT":0},{"OBJECT_NAME":"ONEWEB-0574","OBJECT_ID":"2023-043T","EPOCH":"2025-11-16T09:49:40.641024","MEAN_MOTION":13.21827765,"ECCENTRICITY":0.00018206,"INCLINATION":87.9175,"RA_OF_ASC_NODE":286.4083,"ARG_OF_PERICENTER":85.0686,"MEAN_ANOMALY":275.0655,"EPHEMERIS_TYPE":0,"CLASSIFICATION_TYPE":"U","NORAD_CAT_ID":56063,"ELEMENT_SET_NO":999,"REV_AT_EPOCH":13016,"BSTAR":-0.00026549364,"MEAN_MOTION_DOT":-9.7e-7,"MEAN_MOTION_DDOT":0},{"OBJECT_NAME":"ONEWEB-0575","OBJECT_ID":"2023-043U","EPOCH":"2025-11-16T19:42:22.042080","MEAN_MOTION":13.1659284,"ECCENTRICITY":0.0001474,"INCLINATION":87.9014,"RA_OF_ASC_NODE":271.0617,"ARG_OF_PERICENTER":84.3619,"MEAN_ANOMALY":275.768,"EPHEMERIS_TYPE":0,"CLASSIFICATION_TYPE":"U","NORAD_CAT_ID":56064,"ELEMENT_SET_NO":999,"REV_AT_EPOCH":13102,"BSTAR":-0.00011371,"MEAN_MOTION_DOT":-3.1e-7,"MEAN_MOTION_DDOT":0},{"OBJECT_NAME":"ONEWEB-0576","OBJECT_ID":"2023-043V","EPOCH":"2025-11-16T13:46:43.041792","MEAN_MOTION":13.16594481,"ECCENTRICITY":0.00016938,"INCLINATION":87.9019,"RA_OF_ASC_NODE":271.1106,"ARG_OF_PERICENTER":76.9994,"MEAN_ANOMALY":283.1326,"EPHEMERIS_TYPE":0,"CLASSIFICATION_TYPE":"U","NORAD_CAT_ID":56065,"ELEMENT_SET_NO":999,"REV_AT_EPOCH":13098,"BSTAR":5.6748105e-5,"MEAN_MOTION_DOT":3.5e-7,"MEAN_MOTION_DDOT":0},{"OBJECT_NAME":"ONEWEB-0577","OBJECT_ID":"2023-043W","EPOCH":"2025-11-16T13:55:50.072160","MEAN_MOTION":13.16593922,"ECCENTRICITY":0.00013227,"INCLINATION":87.9018,"RA_OF_ASC_NODE":271.109,"ARG_OF_PERICENTER":92.5363,"MEAN_ANOMALY":267.5919,"EPHEMERIS_TYPE":0,"CLASSIFICATION_TYPE":"U","NORAD_CAT_ID":56066,"ELEMENT_SET_NO":999,"REV_AT_EPOCH":13101,"BSTAR":-5.3602976e-5,"MEAN_MOTION_DOT":-8.0e-8,"MEAN_MOTION_DDOT":0},{"OBJECT_NAME":"ONEWEB-0578","OBJECT_ID":"2023-043X","EPOCH":"2025-11-16T20:24:47.182176","MEAN_MOTION":13.21825937,"ECCENTRICITY":0.0001727,"INCLINATION":87.9187,"RA_OF_ASC_NODE":286.3292,"ARG_OF_PERICENTER":76.7404,"MEAN_ANOMALY":283.3923,"EPHEMERIS_TYPE":0,"CLASSIFICATION_TYPE":"U","NORAD_CAT_ID":56067,"ELEMENT_SET_NO":999,"REV_AT_EPOCH":13018,"BSTAR":0.00018911,"MEAN_MOTION_DOT":9.1e-7,"MEAN_MOTION_DDOT":0},{"OBJECT_NAME":"ONEWEB-0579","OBJECT_ID":"2023-043Y","EPOCH":"2025-11-16T14:43:34.236480","MEAN_MOTION":13.21827746,"ECCENTRICITY":0.0002122,"INCLINATION":87.9186,"RA_OF_ASC_NODE":286.3639,"ARG_OF_PERICENTER":87.2456,"MEAN_ANOMALY":272.8921,"EPHEMERIS_TYPE":0,"CLASSIFICATION_TYPE":"U","NORAD_CAT_ID":56068,"ELEMENT_SET_NO":999,"REV_AT_EPOCH":13016,"BSTAR":0.00016807122,"MEAN_MOTION_DOT":8.2e-7,"MEAN_MOTION_DDOT":0},{"OBJECT_NAME":"ONEWEB-0581","OBJECT_ID":"2023-043Z","EPOCH":"2025-11-16T10:26:03.748704","MEAN_MOTION":13.16592877,"ECCENTRICITY":0.00016746,"INCLINATION":87.9014,"RA_OF_ASC_NODE":271.1522,"ARG_OF_PERICENTER":92.4059,"MEAN_ANOMALY":267.7264,"EPHEMERIS_TYPE":0,"CLASSIFICATION_TYPE":"U","NORAD_CAT_ID":56069,"ELEMENT_SET_NO":999,"REV_AT_EPOCH":13096,"BSTAR":0.00011229717,"MEAN_MOTION_DOT":5.6e-7,"MEAN_MOTION_DDOT":0},{"OBJECT_NAME":"ONEWEB-0609","OBJECT_ID":"2023-043AA","EPOCH":"2025-11-16T10:50:01.797216","MEAN_MOTION":13.15547322,"ECCENTRICITY":0.00019648,"INCLINATION":87.8968,"RA_OF_ASC_NODE":301.6686,"ARG_OF_PERICENTER":85.0408,"MEAN_ANOMALY":275.0946,"EPHEMERIS_TYPE":0,"CLASSIFICATION_TYPE":"U","NORAD_CAT_ID":56070,"ELEMENT_SET_NO":999,"REV_AT_EPOCH":12846,"BSTAR":-0.00028715219,"MEAN_MOTION_DOT":-9.5e-7,"MEAN_MOTION_DDOT":0},{"OBJECT_NAME":"ONEWEB-0613","OBJECT_ID":"2023-043AB","EPOCH":"2025-11-16T16:11:45.902976","MEAN_MOTION":13.15547981,"ECCENTRICITY":0.0002155,"INCLINATION":87.8964,"RA_OF_ASC_NODE":301.6368,"ARG_OF_PERICENTER":88.1171,"MEAN_ANOMALY":272.0206,"EPHEMERIS_TYPE":0,"CLASSIFICATION_TYPE":"U","NORAD_CAT_ID":56071,"ELEMENT_SET_NO":999,"REV_AT_EPOCH":12849,"BSTAR":-0.00031326,"MEAN_MOTION_DOT":-1.05e-6,"MEAN_MOTION_DDOT":0},{"OBJECT_NAME":"ONEWEB-0630","OBJECT_ID":"2023-043AC","EPOCH":"2025-11-16T16:04:54.630336","MEAN_MOTION":13.15547252,"ECCENTRICITY":0.000217,"INCLINATION":87.8963,"RA_OF_ASC_NODE":301.6097,"ARG_OF_PERICENTER":88.7036,"MEAN_ANOMALY":271.4343,"EPHEMERIS_TYPE":0,"CLASSIFICATION_TYPE":"U","NORAD_CAT_ID":56072,"ELEMENT_SET_NO":999,"REV_AT_EPOCH":12848,"BSTAR":-0.00025356,"MEAN_MOTION_DOT":-8.3e-7,"MEAN_MOTION_DDOT":0},{"OBJECT_NAME":"ONEWEB-0632","OBJECT_ID":"2023-043AD","EPOCH":"2025-11-16T15:58:03.343872","MEAN_MOTION":13.15547526,"ECCENTRICITY":0.0001844,"INCLINATION":87.8961,"RA_OF_ASC_NODE":301.6294,"ARG_OF_PERICENTER":92.9938,"MEAN_ANOMALY":267.1403,"EPHEMERIS_TYPE":0,"CLASSIFICATION_TYPE":"U","NORAD_CAT_ID":56073,"ELEMENT_SET_NO":999,"REV_AT_EPOCH":12848,"BSTAR":-2.7545e-5,"MEAN_MOTION_DOT":2.0e-8,"MEAN_MOTION_DDOT":0},{"OBJECT_NAME":"ONEWEB-0633","OBJECT_ID":"2023-043AE","EPOCH":"2025-11-16T15:48:55.761408","MEAN_MOTION":13.15546783,"ECCENTRICITY":0.0002293,"INCLINATION":87.8961,"RA_OF_ASC_NODE":301.594,"ARG_OF_PERICENTER":84.3999,"MEAN_ANOMALY":275.7393,"EPHEMERIS_TYPE":0,"CLASSIFICATION_TYPE":"U","NORAD_CAT_ID":56074,"ELEMENT_SET_NO":999,"REV_AT_EPOCH":12846,"BSTAR":-7.5093e-5,"MEAN_MOTION_DOT":-1.5e-7,"MEAN_MOTION_DDOT":0},{"OBJECT_NAME":"ONEWEB-0634","OBJECT_ID":"2023-043AF","EPOCH":"2025-11-16T11:49:21.419328","MEAN_MOTION":13.15547025,"ECCENTRICITY":0.00018894,"INCLINATION":87.8969,"RA_OF_ASC_NODE":301.6752,"ARG_OF_PERICENTER":75.9752,"MEAN_ANOMALY":284.1588,"EPHEMERIS_TYPE":0,"CLASSIFICATION_TYPE":"U","NORAD_CAT_ID":56075,"ELEMENT_SET_NO":999,"REV_AT_EPOCH":12843,"BSTAR":0.00013131154,"MEAN_MOTION_DOT":6.2e-7,"MEAN_MOTION_DDOT":0},{"OBJECT_NAME":"ONEWEB-0635","OBJECT_ID":"2023-043AG","EPOCH":"2025-11-16T17:11:05.409312","MEAN_MOTION":13.15548696,"ECCENTRICITY":0.0001717,"INCLINATION":87.8959,"RA_OF_ASC_NODE":301.5859,"ARG_OF_PERICENTER":94.4529,"MEAN_ANOMALY":265.6797,"EPHEMERIS_TYPE":0,"CLASSIFICATION_TYPE":"U","NORAD_CAT_ID":56076,"ELEMENT_SET_NO":999,"REV_AT_EPOCH":12849,"BSTAR":0.00054442,"MEAN_MOTION_DOT":2.18e-6,"MEAN_MOTION_DDOT":0},{"OBJECT_NAME":"ONEWEB-0636","OBJECT_ID":"2023-043AH","EPOCH":"2025-11-16T16:59:41.036640","MEAN_MOTION":13.15549001,"ECCENTRICITY":0.0001753,"INCLINATION":87.8956,"RA_OF_ASC_NODE":301.6053,"ARG_OF_PERICENTER":93.0961,"MEAN_ANOMALY":267.037,"EPHEMERIS_TYPE":0,"CLASSIFICATION_TYPE":"U","NORAD_CAT_ID":56077,"ELEMENT_SET_NO":999,"REV_AT_EPOCH":12847,"BSTAR":9.4447e-5,"MEAN_MOTION_DOT":4.8e-7,"MEAN_MOTION_DDOT":0}]
