ONEWEB-0566             
1 56061U 23043R   25320.64319218  .00000009  00000+0 -10249-4 0  9995
2 56061  87.9186 286.3726 0002259  83.4942 276.6449 13.21827557130150
ONEWEB-0568             
1 56062U 23043S   25320.37143279  .00000029  00000+0  43053-4 0  9998
2 56062  87.9016 271.1500 0001699  73.5406 286.5912 13.16592707130972
ONEWEB-0574             
1 56063U 23043T   25320.40949816 -.00000097  00000+0 -26549-3 0  9991
2 56063  87.9175 286.4083 0001820  85.0686 275.0655 13.21827765130167
ONEWEB-0575             
1 56064U 23043U   25320.82108845 -.00000031  00000+0 -11371-3 0  9992
2 56064  87.9014 271.0617 0001474  84.3619 275.7680 13.16592840131024
ONEWEB-0576             
1 56065U 23043V   25320.57410928  .00000035  00000+0  56748-4 0  9993
2 56065  87.9019 271.1106 0001693  76.9994 283.1326 13.16594481130987
ONEWEB-0577             
1 56066U 23043W   25320.58044065 -.00000008  00000+0 -53603-4 0  9999
2 56066  87.9018 271.1090 0001322  92.5363 267.5919 13.16593922131010
ONEWEB-0578             
1 56067U 23043X   25320.85054609  .00000091  00000+0  18911-3 0  9997
2 56067  87.9187 286.3292 0001727  76.7404 283.3923 13.21825937130187
ONEWEB-0579             
1 56068U 23043Y   25320.61359070  .00000082  00000+0  16807-3 0  9994
2 56068  87.9186 286.3639 0002122  87.2456 272.8921 13.21827746130165
ONEWEB-0581             
1 56069U 23043Z   25320.43476561  .00000056  00000+0  11230-3 0  9996
2 56069  87.9014 271.1522 0001674  92.4059 267.7264 13.16592877130966
ONEWEB-0609             
1 56070U 23043AA  25320.45140969 -.00000095  00000+0 -28715-3 0  9991
2 56070  87.8968 301.6686 0001964  85.0408 275.0946 13.15547322128468
ONEWEB-0613             
1 56071U 23043AB  25320.67483684 -.00000105  00000+0 -31326-3 0  9994
2 56071  87.8964 301.6368 0002155  88.1171 272.0206 13.15547981128496
ONEWEB-0630             
1 56072U 23043AC  25320.67007674 -.00000083  00000+0 -25356-3 0  9997
2 56072  87.8963 301.6097 0002170  88.7036 271.4343 13.15547252128483
ONEWEB-0632             
1 56073U 23043AD  25320.66531648  .00000002  00000+0 -27545-4 0  9993
2 56073  87.8961 301.6294 0001844  92.9938 267.1403 13.15547526128489
ONEWEB-0633             
1 56074U 23043AE  25320.65897872 -.00000015  00000+0 -75093-4 0  9993
2 56074  87.8961 301.5940 0002293  84.3999 275.7393 13.15546783128463
ONEWEB-0634             
1 56075U 23043AF  25320.49260902  .00000062  00000+0  13131-3 0  9998
2 56075  87.8969 301.6752 0001889  75.9752 284.1588 13.15547025128434
ONEWEB-0635             
1 56076U 23043AG  25320.71603483  .00000218  00000+0  54442-3 0  9992
2 56076  87.8959 301.5859 0001717  94.4529 265.6797 13.15548696128496
ONEWEB-0636             
1 56077U 23043AH  25320.70811385  .00000048  00000+0  94447-4 0  9995
2 56077  87.8956 301.6053 0001753  93.0961 267.0370 13.15549001128478
